APRIZESAT 2             
1 28366U 04025A   26196.46472554  .00000088  00000+0  40361-4 0  9990
2 28366  98.1042   0.8477 0105953 164.0512 196.4055 14.38047709155700
SAUDICOMSAT 1           
1 28369U 04025D   26196.47692938  .00000138  00000+0  42974-4 0  9992
2 28369  98.5778 207.3726 0030992 298.0104  61.7957 14.55493695168245
SAUDICOMSAT 2           
1 28370U 04025E   26196.27973653  .00000091  00000+0  35557-4 0  9995
2 28370  98.6643 209.3202 0055657 173.4270 186.7666 14.49994403164174
APRIZESAT 1             
1 28372U 04025G   26196.48336592  .00000114  00000+0  40159-4 0  9995
2 28372  98.6310 207.9794 0045770  69.8199 290.7909 14.51792160166010
NANOSAT-1               
1 28493U 04049B   26196.35823766  .00000460  00000+0  67823-4 0  9996
2 28493  98.2309 333.7141 0003806 183.3953 176.7233 14.80210927159615
SAUDICOMSAT 7           
1 31119U 07012C   26195.88968906  .00000235  00000+0  51304-4 0  9998
2 31119  98.3797 170.5911 0056964 109.2296 251.5082 14.66136454 26497
SAUDICOMSAT 6           
1 31121U 07012E   26196.41325489  .00000154  00000+0  39629-4 0  9990
2 31121  98.4118 164.4585 0070531 238.4128 121.0175 14.62584583 24311
SAUDICOMSAT 5           
1 31124U 07012H   26196.16506679  .00000303  00000+0  61004-4 0  9995
2 31124  98.3511 171.6136 0048257  38.9185 321.5477 14.68192109 27701
SAUDICOMSAT 3           
1 31125U 07012J   26196.41717510  .00000351  00000+0  65704-4 0  9996
2 31125  98.3165 172.4173 0038265 324.5221  35.3440 14.70749936 28979
SAUDICOMSAT 4           
1 31127U 07012L   26196.44012275  .00000189  00000+0  44476-4 0  9999
2 31127  98.4004 169.5899 0063595 168.9636 191.2978 14.64535490 25426
APRIZESAT 4             
1 35684U 09041D   26196.17348680  .00000322  00000+0  45241-4 0  9997
2 35684  98.1404 272.0508 0042229 229.5978 130.1548 14.83913710915519
APRIZESAT 3             
1 35686U 09041F   26196.38626186  .00000843  00000+0  77857-4 0  9998
2 35686  98.2100 350.9673 0060795 335.2868  24.5441 14.96311283920598
S-NET D                 
1 43186U 18014G   26196.30120760  .00002467  00000+0  12855-3 0  9991
2 43186  97.5334 100.9175 0006225 284.5570  75.4972 15.16918043463021
S-NET B                 
1 43187U 18014H   26196.18128062  .00002292  00000+0  11979-3 0  9993
2 43187  97.5340 100.7857 0006849 278.7794  81.2663 15.16887017463005
S-NET A                 
1 43188U 18014J   26196.29993006  .00002484  00000+0  12939-3 0  9994
2 43188  97.5349 101.1180 0006714 279.2700  80.7773 15.16926316463027
S-NET C                 
1 43189U 18014K   26196.31724014  .00002256  00000+0  11795-3 0  9995
2 43189  97.5367 101.2140 0008105 269.8421  90.1883 15.16878879461571
SALSAT                  
1 46495U 20068K   26196.46428795  .00004051  00000+0  14153-3 0  9999
2 46495  97.8855 201.2595 0009213 191.9024 168.1999 15.30174422319686
OOV-CUBE (TUBSAT-30)    
1 60240U 24128F   26196.26704743  .00000973  00000+0  86744-4 0  9997
2 60240  61.9937 127.6518 0041102 140.0470 220.3658 15.02873933110338
LPNTSAT-001 (IOD-1)     
1 68408U 26065A   26196.47611897  .00001327  00000+0  67143-4 0  9999
2 68408  97.3980  76.3842 0014622 265.3681  94.5883 15.18669547 16556
CHUANG XIN 26 (CX-26)   
1 69972U 26158A   26194.51442212 -.00000212  00000+0 -21871-4 0  9997
2 69972  49.9860 287.5119 0004887 294.2352  65.8050 14.25122238   462
